#dP2020  1 13  0  0  0.00000000      96 __u+U ITR00 FIT  IAC
## 2088  86400.00000000   900.00000000 58861 0.0000000000000
+  106   C06C07C08C09C10C11C12C13C14C16C19C20C21C22C23C24C25
+        C26C27C28C29C30C32C33C34C35C36C37E01E02E03E04E05E07
+        E08E09E11E12E13E14E15E18E19E21E24E25E26E27E30E31E33
+        E36G01G02G03G04G05G06G07G08G09G10G11G12G13G14G15G16
+        G17G18G19G20G21G22G23G24G25G26G27G28G29G30G31G32R01
+        R02R03R04R05R07R08R09R11R12R13R14R15R16R17R18R19R20
+        R21R22R23R26  0  0  0  0  0  0  0  0  0  0  0  0  0
++         8  9 10  8  8  8  8  8  8  8  8  8  8  7  8  8  8
++         8  8  8  8  8  8  8  8  8  8  8  4  4  4  4  4  4
++         4  4  4  4  4  4  3  4  4  4  4  4  4  3  4  4  4
++         4  3  3  4  4  3  3  3  3  3  3  3  4  3  3  4  3
++         3  4  3  4  4  3  3  3  4  3  3  3  3  3  4  3  6
++         5  5  6  5  5  5  5  5  5  6  5  5  6  5  6  6  6
++         5  5  5  8  0  0  0  0  0  0  0  0  0  0  0  0  0
%c M  cc GPS ccc cccc cccc cccc cccc ccccc ccccc ccccc ccccc
%c cc cc ccc ccc cccc cccc cccc cccc ccccc ccccc ccccc ccccc
%f  0.0000000  0.000000000  0.00000000000  0.000000000000000
%f  0.0000000  0.000000000  0.00000000000  0.000000000000000
%i    0    0    0    0      0      0      0      0         0
%i    0    0    0    0      0      0      0      0         0
/* INFORMATION & ANALYSIS CENTER (IAC)      ULTRA-RAPID DATA
/* S/V CLOCKS ARE ALIGNED TO GNSS TIME                      
/* G:C1WC2W R:C1PC2P E:C1XC5X C:C2IC6I J:C1CC2S             
/* PCV:IGS14_2082 OL/AL:FES2004  NONE     YN ORB:CoN CLK:CoN
*  2020 01 13 20  0  0.00000000
PC06 -22735.495469  34670.862842  -8448.296641    262.057966
PC07  -7972.767578  32529.780574 -25170.930471     95.066702
PC08      0.000000      0.000000      0.000000 999999.999999
PC09 -12378.971185  34412.695451 -21060.524990    258.955059
PC10   3751.217256  38959.170053 -14943.721309   -557.244029
PC11  11292.953442  11018.698786  23089.563155   -119.148045
PC12  -8355.062800  19119.077226  18558.689851    309.010507
PC13    123.229190  23364.270797  35202.802912    204.804400
PC14  10134.186711  21959.957233 -13852.596185   -826.754756
PC16 -20779.795672  35237.090200 -10585.094924   -850.595045
PC19 -14125.042935 -13615.394035  19869.437540    297.078037
PC20  -4980.976491 -26734.634576   6331.023465   -553.325280
PC21  -7492.748457  24323.202712  11437.980070     22.838030
PC22 -15242.196504   7622.067531  22092.704432   -672.884666
PC23  22748.706140   -183.583906  16168.214192   -872.330110
PC24  11266.287458  19723.145412 -16238.163449   -899.863325
PC25  24671.693450  13062.478229    280.751405   -480.342715
PC26  -7062.492990  14500.836386 -22777.637234    532.793045
PC27  16947.734080 -18913.554939 -11554.632381    260.011480
PC28  25441.070794  -9842.690510   5915.310207    250.973006
PC29 -19202.128971  -4207.496865 -19807.376652    173.295001
PC30  -1788.961663 -16940.141716 -22094.213055    255.658058
PC32   7302.498617 -24398.483262 -11404.524365   -856.243201
PC33  14185.956480  13603.670957 -19803.978623   -780.215753
PC34   2123.770303  16830.864879  22163.160057   -388.197758
PC35 -25117.317150  10619.584438  -5999.307532   -763.513575
PC36 -24277.075822 -13759.876126    -58.249718   -848.096253
PC37   8057.820627 -13962.256677  22795.600719   -919.093856
PE01  -1469.801755 -22881.764167  18716.722137   -772.928249
PE02   1554.032887  22932.406101 -18661.201515    105.537915
PE03  -8627.477191  27945.777653  -4520.431851   -254.711560
PE04  -6231.464055 -21050.857782  19852.356954   -444.825071
PE05 -18606.140156  18538.861684  13642.862917   -414.349242
PE07  17643.933751   1640.505332 -23712.467896   -326.370872
PE08   6418.799203  20810.972409 -20046.390706   6235.244901
PE09 -17538.390041  -1404.570735  23799.531794   6189.828947
PE11 -28318.284037  -2058.655932  -8388.755947    781.719833
PE12 -13845.214442 -13291.205866 -22527.670038   6003.052133
PE13  28235.812343   2076.626292   8648.513870    397.355585
PE14   8910.338849 -25716.017099 -13900.298713   -866.724968
PE15  14110.792901  13084.975160  22505.910951    880.954616
PE18 -17414.181832  19793.643313   1975.630852   -963.326110
PE19  10070.936351 -27720.693703   2489.803431     -1.973039
PE21  14388.808909  -8019.394459  24592.514018   -576.823717
PE24 -21915.839540 -11757.867205 -16040.553667   5664.805572
PE25 -14447.479631   7928.613767 -24582.106446   -501.062632
PE26  25733.157727 -10189.207406 -10492.753280   3650.354263
PE27  21964.364978  11668.158390  16062.322631    304.377817
PE30  16407.120847  24568.730418  -1989.405727   4227.159132
PE31 -16604.748288 -24429.675272   1879.001979   -471.292147
PE33   8313.047592 -16422.248406 -23165.583925   -470.980566
PE36 -25808.784992  10182.450335  10330.449412    611.745297
PG01 -16674.002315 -13919.721484 -15709.566538   -261.409795
PG02  -6990.822608  14573.493790  21700.467002   -385.279491
PG03 -13388.916930 -21638.019752   7718.874848    -71.733622
PG04  -8468.120609 -13097.961106  21502.652851    -33.889467
PG05    526.687951  23786.256235  11463.853354     -6.050931
PG06 -19536.196878   7658.750100  16357.290647   -181.279118
PG07 -26152.854847  -5908.415646   1096.015159   -191.399307
PG08    621.714806 -19738.679290 -17609.918369    -20.092489
PG09 -16301.579656  -3322.481036  20651.403700   -131.687961
PG10  14317.351322  -4777.076950 -21783.584359   -208.276129
PG11 -10787.474888 -13510.068926 -20588.153550   -391.077357
PG12   9747.339702  24420.035742   4144.181378    162.691002
PG13  -9699.122183  21047.297316 -13029.231342    -20.166095
PG14  18248.789351 -19150.766523    843.147771    -38.969481
PG15   2645.268437  19659.359456 -17787.097789   -258.833950
PG16   2243.763510 -23251.332855  12000.888126   -113.240196
PG17 -20927.026873  13203.978217  -9139.879610    198.043721
PG18  -8352.204159 -15545.262827 -20381.793763    113.217688
PG19 -20235.940139  17060.604604  -2561.609627   -212.937841
PG20  18359.751865   5951.147711 -18422.420691    527.794237
PG21  26254.234842   2810.524958   -377.134221    -56.221150
PG22 -10796.924006 -24327.976454   -221.774179   -781.796641
PG23 -10704.264063 -11712.839529  21626.330579   -143.310085
PG24  15140.889736  14345.314595 -16833.092599     -7.527044
PG25  16120.657201  15093.388245  14727.221841    -16.080792
PG26   7730.116226 -17055.396403  18729.512274    126.625131
PG27  10587.693398 -22323.673559  -9412.957543   -180.180013
PG28 -13521.164388   5588.259050 -21580.921896    745.459601
PG29  15398.306872   4297.838323  21183.526382     -6.690585
PG30 -24610.487027   2049.744236 -10006.067721   -128.517596
PG31  18004.532865  -8842.372603  17605.399324    -16.320950
PG32  20341.919858 -14247.284354  -9161.090812    184.001995
PR01  10246.529179 -17513.722070 -15470.607758     55.578324
PR02   2175.834645 -24970.188111   4606.253152    407.026205
PR03  -6592.059595 -15533.277935  19143.992866      8.189156
PR04 -11289.744076   2681.196603  22736.140659     35.268022
PR05  -9736.269753  19402.613588  13417.859938     43.058673
PR07   6749.954704  15148.033102 -19368.630398    -31.955858
PR08  11383.222829  -2591.056521 -22631.915461     13.129651
PR09  10205.312931  17921.561563 -14954.918281    111.275450
PR11  19222.101061   6115.740103  15600.633927     -9.901022
PR12   8532.897603  -7053.314673  23007.053412     96.587450
PR13  -7854.748876 -16960.788356  17338.194419    -33.488355
PR14 -19093.215253 -16850.319699   1555.624507     47.071473
PR15 -19433.838742  -6976.983754 -14952.607467    105.683901
PR16  -8053.412774   7740.582450 -22950.827470     -0.949210
PR17 -12794.475094  -5698.153546 -21292.567083    292.107852
PR18 -23439.836645   4008.794105  -9279.938323     21.442644
PR19 -21863.976703  10848.640733   7413.255749    -73.857636
PR20  -6038.203241  12196.909525  21598.745691   -401.412519
PR21  13569.646586   5189.858146  20981.919630    -98.054840
PR22  23982.250019  -5395.483649   6591.127134     -9.655606
PR23  17849.352328 -12642.124516 -13124.013388    279.608732
PR26  -9746.386040  12913.987247  19727.017092   -411.843137
EOF
